KUIPER-00035            
1 63748U 25088AA  25224.75002315 -.00010622  00000+0 -11912-2 0  9997
2 63748  51.8955 318.1007 0005133 112.0272  89.1143 14.85569048  4594
KUIPER-00037            
1 63749U 25088AB  25224.75002315  .00018794  00000+0  21324-2 0  9992
2 63749  51.8963 317.1490 0005268  29.0365 144.0329 14.86333108  5863
KUIPER-00038            
1 63750U 25088AC  25224.75002315  .00017532  00000+0  73286-3 0  9998
2 63750  51.8788 307.3619 0005377 112.5808 239.1608 15.23672659  1855
KUIPER-00039            
1 64500U 25134A   25223.93630894  .00029597  00000+0  85390-3 0  9995
2 64500  51.8675  92.5794 0007529 290.4402  69.5775 15.35427381  8386
KUIPER-00040            
1 64501U 25134B   25224.75002315 -.00901038  00000+0 -54162-1 0  9990
2 64501  51.8792  91.3772 0013388 301.9134 319.0741 15.13016435  5372
KUIPER-00041            
1 64502U 25134C   25224.75002315 -.01847917  00000+0 -12802+0 0  9990
2 64502  51.8799  91.8406 0009913 299.8495  50.4629 15.08694841  5607
KUIPER-00042            
1 64503U 25134D   25224.75002315 -.00015526  00000+0 -79348-3 0  9995
2 64503  51.8783  90.2409 0010704 300.3442 181.5694 15.15511962  5504
KUIPER-00043            
1 64504U 25134E   25224.75002315 -.00444966  00000+0 -14808-1 0  9998
2 64504  51.8697  88.7633 0008462 295.9163 200.9232 15.32433902  5844
