<?xml version="1.0" encoding="UTF-8"?>
<ndm xmlns:xsi="http://www.w3.org/2001/XMLSchema-instance" xsi:noNamespaceSchemaLocation="https://sanaregistry.org/r/ndmxml_unqualified/ndmxml-2.0.0-master-2.0.xsd">
<omm id="CCSDS_OMM_VERS" version="2.0">
<header><CREATION_DATE/><ORIGINATOR/></header><body><segment><metadata><OBJECT_NAME>KUIPER-00035</OBJECT_NAME><OBJECT_ID>2025-088AA</OBJECT_ID><CENTER_NAME>EARTH</CENTER_NAME><REF_FRAME>TEME</REF_FRAME><TIME_SYSTEM>UTC</TIME_SYSTEM><MEAN_ELEMENT_THEORY>SGP4</MEAN_ELEMENT_THEORY></metadata><data><meanElements><EPOCH>2025-08-12T18:00:02.000160</EPOCH><MEAN_MOTION>14.85569048</MEAN_MOTION><ECCENTRICITY>.0005133</ECCENTRICITY><INCLINATION>51.8955</INCLINATION><RA_OF_ASC_NODE>318.1007</RA_OF_ASC_NODE><ARG_OF_PERICENTER>112.0272</ARG_OF_PERICENTER><MEAN_ANOMALY>89.1143</MEAN_ANOMALY></meanElements><tleParameters><EPHEMERIS_TYPE>0</EPHEMERIS_TYPE><CLASSIFICATION_TYPE>U</CLASSIFICATION_TYPE><NORAD_CAT_ID>63748</NORAD_CAT_ID><ELEMENT_SET_NO>999</ELEMENT_SET_NO><REV_AT_EPOCH>459</REV_AT_EPOCH><BSTAR>-.11912E-2</BSTAR><MEAN_MOTION_DOT>-.10622E-3</MEAN_MOTION_DOT><MEAN_MOTION_DDOT>0</MEAN_MOTION_DDOT></tleParameters></data></segment></body></omm>
<omm id="CCSDS_OMM_VERS" version="2.0">
<header><CREATION_DATE/><ORIGINATOR/></header><body><segment><metadata><OBJECT_NAME>KUIPER-00037</OBJECT_NAME><OBJECT_ID>2025-088AB</OBJECT_ID><CENTER_NAME>EARTH</CENTER_NAME><REF_FRAME>TEME</REF_FRAME><TIME_SYSTEM>UTC</TIME_SYSTEM><MEAN_ELEMENT_THEORY>SGP4</MEAN_ELEMENT_THEORY></metadata><data><meanElements><EPOCH>2025-08-12T18:00:02.000160</EPOCH><MEAN_MOTION>14.86333108</MEAN_MOTION><ECCENTRICITY>.0005268</ECCENTRICITY><INCLINATION>51.8963</INCLINATION><RA_OF_ASC_NODE>317.1490</RA_OF_ASC_NODE><ARG_OF_PERICENTER>29.0365</ARG_OF_PERICENTER><MEAN_ANOMALY>144.0329</MEAN_ANOMALY></meanElements><tleParameters><EPHEMERIS_TYPE>0</EPHEMERIS_TYPE><CLASSIFICATION_TYPE>U</CLASSIFICATION_TYPE><NORAD_CAT_ID>63749</NORAD_CAT_ID><ELEMENT_SET_NO>999</ELEMENT_SET_NO><REV_AT_EPOCH>586</REV_AT_EPOCH><BSTAR>.21324E-2</BSTAR><MEAN_MOTION_DOT>.18794E-3</MEAN_MOTION_DOT><MEAN_MOTION_DDOT>0</MEAN_MOTION_DDOT></tleParameters></data></segment></body></omm>
<omm id="CCSDS_OMM_VERS" version="2.0">
<header><CREATION_DATE/><ORIGINATOR/></header><body><segment><metadata><OBJECT_NAME>KUIPER-00038</OBJECT_NAME><OBJECT_ID>2025-088AC</OBJECT_ID><CENTER_NAME>EARTH</CENTER_NAME><REF_FRAME>TEME</REF_FRAME><TIME_SYSTEM>UTC</TIME_SYSTEM><MEAN_ELEMENT_THEORY>SGP4</MEAN_ELEMENT_THEORY></metadata><data><meanElements><EPOCH>2025-08-12T18:00:02.000160</EPOCH><MEAN_MOTION>15.23672659</MEAN_MOTION><ECCENTRICITY>.0005377</ECCENTRICITY><INCLINATION>51.8788</INCLINATION><RA_OF_ASC_NODE>307.3619</RA_OF_ASC_NODE><ARG_OF_PERICENTER>112.5808</ARG_OF_PERICENTER><MEAN_ANOMALY>239.1608</MEAN_ANOMALY></meanElements><tleParameters><EPHEMERIS_TYPE>0</EPHEMERIS_TYPE><CLASSIFICATION_TYPE>U</CLASSIFICATION_TYPE><NORAD_CAT_ID>63750</NORAD_CAT_ID><ELEMENT_SET_NO>999</ELEMENT_SET_NO><REV_AT_EPOCH>185</REV_AT_EPOCH><BSTAR>.73286E-3</BSTAR><MEAN_MOTION_DOT>.17532E-3</MEAN_MOTION_DOT><MEAN_MOTION_DDOT>0</MEAN_MOTION_DDOT></tleParameters></data></segment></body></omm>
<omm id="CCSDS_OMM_VERS" version="2.0">
<header><CREATION_DATE/><ORIGINATOR/></header><body><segment><metadata><OBJECT_NAME>KUIPER-00039</OBJECT_NAME><OBJECT_ID>2025-134A</OBJECT_ID><CENTER_NAME>EARTH</CENTER_NAME><REF_FRAME>TEME</REF_FRAME><TIME_SYSTEM>UTC</TIME_SYSTEM><MEAN_ELEMENT_THEORY>SGP4</MEAN_ELEMENT_THEORY></metadata><data><meanElements><EPOCH>2025-08-11T22:28:17.092416</EPOCH><MEAN_MOTION>15.35427381</MEAN_MOTION><ECCENTRICITY>.0007529</ECCENTRICITY><INCLINATION>51.8675</INCLINATION><RA_OF_ASC_NODE>92.5794</RA_OF_ASC_NODE><ARG_OF_PERICENTER>290.4402</ARG_OF_PERICENTER><MEAN_ANOMALY>69.5775</MEAN_ANOMALY></meanElements><tleParameters><EPHEMERIS_TYPE>0</EPHEMERIS_TYPE><CLASSIFICATION_TYPE>U</CLASSIFICATION_TYPE><NORAD_CAT_ID>64500</NORAD_CAT_ID><ELEMENT_SET_NO>999</ELEMENT_SET_NO><REV_AT_EPOCH>838</REV_AT_EPOCH><BSTAR>.8539E-3</BSTAR><MEAN_MOTION_DOT>.29597E-3</MEAN_MOTION_DOT><MEAN_MOTION_DDOT>0</MEAN_MOTION_DDOT></tleParameters></data></segment></body></omm>
<omm id="CCSDS_OMM_VERS" version="2.0">
<header><CREATION_DATE/><ORIGINATOR/></header><body><segment><metadata><OBJECT_NAME>KUIPER-00040</OBJECT_NAME><OBJECT_ID>2025-134B</OBJECT_ID><CENTER_NAME>EARTH</CENTER_NAME><REF_FRAME>TEME</REF_FRAME><TIME_SYSTEM>UTC</TIME_SYSTEM><MEAN_ELEMENT_THEORY>SGP4</MEAN_ELEMENT_THEORY></metadata><data><meanElements><EPOCH>2025-08-12T18:00:02.000160</EPOCH><MEAN_MOTION>15.13016435</MEAN_MOTION><ECCENTRICITY>.0013388</ECCENTRICITY><INCLINATION>51.8792</INCLINATION><RA_OF_ASC_NODE>91.3772</RA_OF_ASC_NODE><ARG_OF_PERICENTER>301.9134</ARG_OF_PERICENTER><MEAN_ANOMALY>319.0741</MEAN_ANOMALY></meanElements><tleParameters><EPHEMERIS_TYPE>0</EPHEMERIS_TYPE><CLASSIFICATION_TYPE>U</CLASSIFICATION_TYPE><NORAD_CAT_ID>64501</NORAD_CAT_ID><ELEMENT_SET_NO>999</ELEMENT_SET_NO><REV_AT_EPOCH>537</REV_AT_EPOCH><BSTAR>-.54162E-1</BSTAR><MEAN_MOTION_DOT>-.901038E-2</MEAN_MOTION_DOT><MEAN_MOTION_DDOT>0</MEAN_MOTION_DDOT></tleParameters></data></segment></body></omm>
<omm id="CCSDS_OMM_VERS" version="2.0">
<header><CREATION_DATE/><ORIGINATOR/></header><body><segment><metadata><OBJECT_NAME>KUIPER-00041</OBJECT_NAME><OBJECT_ID>2025-134C</OBJECT_ID><CENTER_NAME>EARTH</CENTER_NAME><REF_FRAME>TEME</REF_FRAME><TIME_SYSTEM>UTC</TIME_SYSTEM><MEAN_ELEMENT_THEORY>SGP4</MEAN_ELEMENT_THEORY></metadata><data><meanElements><EPOCH>2025-08-12T18:00:02.000160</EPOCH><MEAN_MOTION>15.08694841</MEAN_MOTION><ECCENTRICITY>.0009913</ECCENTRICITY><INCLINATION>51.8799</INCLINATION><RA_OF_ASC_NODE>91.8406</RA_OF_ASC_NODE><ARG_OF_PERICENTER>299.8495</ARG_OF_PERICENTER><MEAN_ANOMALY>50.4629</MEAN_ANOMALY></meanElements><tleParameters><EPHEMERIS_TYPE>0</EPHEMERIS_TYPE><CLASSIFICATION_TYPE>U</CLASSIFICATION_TYPE><NORAD_CAT_ID>64502</NORAD_CAT_ID><ELEMENT_SET_NO>999</ELEMENT_SET_NO><REV_AT_EPOCH>560</REV_AT_EPOCH><BSTAR>-.12802E+0</BSTAR><MEAN_MOTION_DOT>-.1847917E-1</MEAN_MOTION_DOT><MEAN_MOTION_DDOT>0</MEAN_MOTION_DDOT></tleParameters></data></segment></body></omm>
<omm id="CCSDS_OMM_VERS" version="2.0">
<header><CREATION_DATE/><ORIGINATOR/></header><body><segment><metadata><OBJECT_NAME>KUIPER-00042</OBJECT_NAME><OBJECT_ID>2025-134D</OBJECT_ID><CENTER_NAME>EARTH</CENTER_NAME><REF_FRAME>TEME</REF_FRAME><TIME_SYSTEM>UTC</TIME_SYSTEM><MEAN_ELEMENT_THEORY>SGP4</MEAN_ELEMENT_THEORY></metadata><data><meanElements><EPOCH>2025-08-12T18:00:02.000160</EPOCH><MEAN_MOTION>15.15511962</MEAN_MOTION><ECCENTRICITY>.0010704</ECCENTRICITY><INCLINATION>51.8783</INCLINATION><RA_OF_ASC_NODE>90.2409</RA_OF_ASC_NODE><ARG_OF_PERICENTER>300.3442</ARG_OF_PERICENTER><MEAN_ANOMALY>181.5694</MEAN_ANOMALY></meanElements><tleParameters><EPHEMERIS_TYPE>0</EPHEMERIS_TYPE><CLASSIFICATION_TYPE>U</CLASSIFICATION_TYPE><NORAD_CAT_ID>64503</NORAD_CAT_ID><ELEMENT_SET_NO>999</ELEMENT_SET_NO><REV_AT_EPOCH>550</REV_AT_EPOCH><BSTAR>-.79348E-3</BSTAR><MEAN_MOTION_DOT>-.15526E-3</MEAN_MOTION_DOT><MEAN_MOTION_DDOT>0</MEAN_MOTION_DDOT></tleParameters></data></segment></body></omm>
<omm id="CCSDS_OMM_VERS" version="2.0">
<header><CREATION_DATE/><ORIGINATOR/></header><body><segment><metadata><OBJECT_NAME>KUIPER-00043</OBJECT_NAME><OBJECT_ID>2025-134E</OBJECT_ID><CENTER_NAME>EARTH</CENTER_NAME><REF_FRAME>TEME</REF_FRAME><TIME_SYSTEM>UTC</TIME_SYSTEM><MEAN_ELEMENT_THEORY>SGP4</MEAN_ELEMENT_THEORY></metadata><data><meanElements><EPOCH>2025-08-12T18:00:02.000160</EPOCH><MEAN_MOTION>15.32433902</MEAN_MOTION><ECCENTRICITY>.0008462</ECCENTRICITY><INCLINATION>51.8697</INCLINATION><RA_OF_ASC_NODE>88.7633</RA_OF_ASC_NODE><ARG_OF_PERICENTER>295.9163</ARG_OF_PERICENTER><MEAN_ANOMALY>200.9232</MEAN_ANOMALY></meanElements><tleParameters><EPHEMERIS_TYPE>0</EPHEMERIS_TYPE><CLASSIFICATION_TYPE>U</CLASSIFICATION_TYPE><NORAD_CAT_ID>64504</NORAD_CAT_ID><ELEMENT_SET_NO>999</ELEMENT_SET_NO><REV_AT_EPOCH>584</REV_AT_EPOCH><BSTAR>-.14808E-1</BSTAR><MEAN_MOTION_DOT>-.444966E-2</MEAN_MOTION_DOT><MEAN_MOTION_DDOT>0</MEAN_MOTION_DDOT></tleParameters></data></segment></body></omm>

</ndm>
